NORAD_CAT_ID,OBJECT_NAME,OBJECT_TYPE,EPOCH,MEAN_MOTION,ECCENTRICITY,INCLINATION,RA_OF_ASC_NODE,ARG_OF_PERICENTER,MEAN_ANOMALY,BSTAR,MEAN_MOTION_DOT,MEAN_MOTION_DDOT,TLE_LINE0,TLE_LINE1,TLE_LINE2,SEMIMAJOR_AXIS,PERIOD,APOGEE,PERIGEE,DECAYED
55928.0,STARLINK-5930,PAYLOAD,2024-01-09 19:17:31,14.98331802,0.0002784,70.0011,135.8893,262.881,97.2032,6.748e-06,-1.2e-07,0.0,0 STARLINK-5930,1 55928U 23037Q   24009.80383737 -.00000012  00000-0  67480-5 0  9992,2 55928  70.0011 135.8893 0002784 262.8810  97.2032 14.98331802 45174,6950.187,96.107,573.987,570.117,0.0
55928.0,STARLINK-5930,PAYLOAD,2024-01-10 11:18:52,14.98330014,0.0002725,70.0011,134.2065,260.1881,99.897,1.8508e-05,1.28e-06,0.0,0 STARLINK-5930,1 55928U 23037Q   24010.47143731  .00000128  00000-0  18508-4 0  9998,2 55928  70.0011 134.2065 0002725 260.1881  99.8970 14.98330014 45614,6950.193,96.107,573.952,570.164,0.0
55928.0,STARLINK-5930,PAYLOAD,2024-01-11 11:20:51,14.98349024,0.000342,69.9998,131.6799,270.5365,89.5402,0.00019247,2.205e-05,0.0,0 STARLINK-5930,1 55928U 23037Q   24011.47281365  .00002205  00000-0  19247-3 0  9993,2 55928  69.9998 131.6799 0003420 270.5365  89.5402 14.98349024 45768,6950.134,96.106,574.376,569.622,0.0
55928.0,STARLINK-5930,PAYLOAD,2024-01-11 14:33:06,14.98351577,0.0002826,70.0007,131.3439,271.7038,88.3797,0.00022701,2.618e-05,0.0,0 STARLINK-5930,1 55928U 23037Q   24011.60633037  .00002618  00000-0  22701-3 0  9992,2 55928  70.0007 131.3439 0002826 271.7038  88.3797 14.98351577 45444,6950.126,96.106,573.955,570.027,0.0
55928.0,STARLINK-5930,PAYLOAD,2024-01-11 17:45:24,14.98325656,0.0003069,70.001,131.0083,267.0774,93.0034,-7.0861e-05,-9.38e-06,0.0,0 STARLINK-5930,1 55928U 23037Q   24011.73987062 -.00000938  00000-0 -70861-4 0  9992,2 55928  70.0010 131.0083 0003069 267.0774  93.0034 14.98325656 45801,6950.206,96.107,574.204,569.938,0.0
55928.0,STARLINK-5930,PAYLOAD,2024-01-12 11:22:54,14.9831425,0.0003281,69.9998,129.156,271.2778,88.8005,-0.00023249,-2.865e-05,0.0,0 STARLINK-5930,1 55928U 23037Q   24012.47424709 -.00002865  00000-0 -23249-3 0  9996,2 55928  69.9998 129.1560 0003281 271.2778  88.8005 14.98314250 45918,6950.242,96.108,574.387,569.826,0.0
55928.0,STARLINK-5930,PAYLOAD,2024-01-12 14:35:11,14.98314133,0.0002903,70.0004,128.8193,270.9266,89.156,-0.00019478,-2.415e-05,0.0,0 STARLINK-5930,1 55928U 23037Q   24012.60776783 -.00002415  00000-0 -19478-3 0  9993,2 55928  70.0004 128.8193 0002903 270.9266  89.1560 14.98314133 45599,6950.242,96.108,574.125,570.089,0.0
55928.0,STARLINK-5930,PAYLOAD,2024-01-12 17:47:27,14.98316728,0.0002844,70.0006,128.4836,269.6747,90.4086,-0.0001646,-2.056e-05,0.0,0 STARLINK-5930,1 55928U 23037Q   24012.74128632 -.00002056  00000-0 -16460-3 0  9991,2 55928  70.0006 128.4836 0002844 269.6747  90.4086 14.98316728 45617,6950.234,96.108,574.076,570.122,0.0
55928.0,STARLINK-5930,PAYLOAD,2024-01-13 11:24:54,14.98370912,0.0002702,69.9997,126.6314,263.6651,96.42,-0.00074136,-8.937e-05,0.0,0 STARLINK-5930,1 55928U 23037Q   24013.47562938 -.00008937  00000-0 -74136-3 0  9991,2 55928  69.9997 126.6314 0002702 263.6651  96.4200 14.98370912 46064,6950.066,96.104,573.809,570.053,0.0
55928.0,STARLINK-5930,PAYLOAD,2024-01-13 14:37:10,14.98339071,0.000269,70.0009,126.2951,262.8762,97.2091,-0.00012298,-1.56e-05,0.0,0 STARLINK-5930,1 55928U 23037Q   24013.60915064 -.00001560  00000-0 -12298-3 0  9994,2 55928  70.0009 126.2951 0002690 262.8762  97.2091 14.98339071 45746,6950.165,96.106,573.899,570.16,0.0
55928.0,STARLINK-5930,PAYLOAD,2024-01-13 17:49:26,14.98339508,0.0002377,70.0016,125.9585,242.6468,117.4449,-8.2185e-05,-1.074e-05,0.0,0 STARLINK-5930,1 55928U 23037Q   24013.74266858 -.00001074  00000-0 -82185-4 0  9992,2 55928  70.0016 125.9585 0002377 242.6468 117.4449 14.98339508 46102,6950.163,96.106,573.681,570.376,0.0
55928.0,STARLINK-5930,PAYLOAD,2024-01-14 11:26:56,14.98316046,0.0002516,70.0015,124.1071,256.8072,103.2806,0.00021584,2.482e-05,0.0,0 STARLINK-5930,1 55928U 23037Q   24014.47703866  .00002482  00000-0  21584-3 0  9995,2 55928  70.0015 124.1071 0002516 256.8072 103.2806 14.98316046 46219,6950.236,96.108,573.85,570.352,0.0
55928.0,STARLINK-5930,PAYLOAD,2024-01-14 14:39:12,14.98316082,0.0002486,70.0015,123.7707,255.3216,104.7667,0.00018159,2.074e-05,0.0,0 STARLINK-5930,1 55928U 23037Q   24014.61056075  .00002074  00000-0  18159-3 0  9995,2 55928  70.0015 123.7707 0002486 255.3216 104.7667 14.98316082 45894,6950.236,96.108,573.829,570.373,0.0
55928.0,STARLINK-5930,PAYLOAD,2024-01-14 16:15:20,14.98317429,0.0002486,70.0015,123.6023,255.8854,104.2029,0.00019116,2.188e-05,0.0,0 STARLINK-5930,1 55928U 23037Q   24014.67732019  .00002188  00000-0  19116-3 0  9990,2 55928  70.0015 123.6023 0002486 255.8854 104.2029 14.98317429 45902,6950.232,96.108,573.825,570.369,0.0
55928.0,STARLINK-5930,PAYLOAD,2024-01-15 11:28:56,14.9833435,0.0002549,70.0014,121.5826,256.0314,104.0562,3.4195e-05,3.15e-06,0.0,0 STARLINK-5930,1 55928U 23037Q   24015.47843468  .00000315  00000-0  34195-4 0  9995,2 55928  70.0014 121.5826 0002549 256.0314 104.0562 14.98334350 46366,6950.179,96.107,573.816,570.273,0.0
55928.0,STARLINK-5930,PAYLOAD,2024-01-15 14:41:12,14.98335302,0.0002523,70.0014,121.246,254.564,105.524,4.6247e-05,4.59e-06,0.0,0 STARLINK-5930,1 55928U 23037Q   24015.61195326  .00000459  00000-0  46247-4 0  9994,2 55928  70.0014 121.2460 0002523 254.5640 105.5240 14.98335302 46046,6950.176,96.107,573.795,570.288,0.0
55928.0,STARLINK-5930,PAYLOAD,2024-01-15 16:17:20,14.98335466,0.0002523,70.0014,121.0777,255.0713,105.0167,4.6883e-05,4.67e-06,0.0,0 STARLINK-5930,1 55928U 23037Q   24015.67871296  .00000467  00000-0  46883-4 0  9992,2 55928  70.0014 121.0777 0002523 255.0713 105.0167 14.98335466 46057,6950.176,96.107,573.795,570.287,0.0
55928.0,STARLINK-5930,PAYLOAD,2024-01-16 11:30:58,14.98322936,0.0002427,70.0021,119.0595,241.7138,118.3776,4.8542e-06,-3.5e-07,0.0,0 STARLINK-5930,1 55928U 23037Q   24016.47984227 -.00000035  00000-0  48542-5 0  9997,2 55928  70.0021 119.0595 0002427 241.7138 118.3776 14.98322936 46518,6950.215,96.107,573.767,570.393,0.0
55928.0,STARLINK-5930,PAYLOAD,2024-01-16 14:43:14,14.98323506,0.0002428,70.0021,118.7228,240.8266,119.265,9.917e-06,2.5e-07,0.0,0 STARLINK-5930,1 55928U 23037Q   24016.61336221  .00000025  00000-0  99170-5 0  9999,2 55928  70.0021 118.7228 0002428 240.8266 119.2650 14.98323506 46199,6950.213,96.107,573.765,570.39,0.0
55928.0,STARLINK-5930,PAYLOAD,2024-01-16 16:19:22,14.98323853,0.0002422,70.002,118.5544,241.8488,118.2426,1.1861e-05,4.9e-07,0.0,0 STARLINK-5930,1 55928U 23037Q   24016.68012220  .00000049  00000-0  11861-4 0  9992,2 55928  70.0020 118.5544 0002422 241.8488 118.2426 14.98323853 46205,6950.212,96.107,573.76,570.394,0.0
55928.0,STARLINK-5930,PAYLOAD,2024-01-17 11:32:59,14.9833047,0.0002651,70.0009,116.5333,259.2057,100.8803,2.0099e-06,-6.9e-07,0.0,0 STARLINK-5930,1 55928U 23037Q   24017.48123879 -.00000069  00000-0  20099-5 0  9991,2 55928  70.0009 116.5333 0002651 259.2057 100.8803 14.98330470 46664,6950.191,96.107,573.899,570.214,0.0
55928.0,STARLINK-5930,PAYLOAD,2024-01-17 14:45:14,14.9833243,0.0002594,70.001,116.1969,258.1013,101.9855,3.025e-05,2.68e-06,0.0,0 STARLINK-5930,1 55928U 23037Q   24017.61475680  .00000268  00000-0  30250-4 0  9995,2 55928  70.0010 116.1969 0002594 258.1013 101.9855 14.98332430 46345,6950.185,96.107,573.853,570.247,0.0
55928.0,STARLINK-5930,PAYLOAD,2024-01-17 16:21:22,14.98333483,0.0002497,70.0011,116.0286,253.0018,107.0867,2.588e-05,2.16e-06,0.0,0 STARLINK-5930,1 55928U 23037Q   24017.68151611  .00000216  00000-0  25880-4 0  9993,2 55928  70.0011 116.0286 0002497 253.0018 107.0867 14.98333483 46358,6950.182,96.107,573.783,570.312,0.0
55928.0,STARLINK-5930,PAYLOAD,2024-01-18 11:34:59,14.98333527,0.0002677,70.0008,114.0086,260.1399,99.9458,0.00010089,1.111e-05,0.0,0 STARLINK-5930,1 55928U 23037Q   24018.48263317  .00001111  00000-0  10089-3 0  9998,2 55928  70.0008 114.0086 0002677 260.1399  99.9458 14.98333527 46816,6950.182,96.107,573.908,570.186,0.0
55928.0,STARLINK-5930,PAYLOAD,2024-01-18 14:47:15,14.98334464,0.0002673,70.0009,113.6723,260.5198,99.5659,0.00010768,1.192e-05,0.0,0 STARLINK-5930,1 55928U 23037Q   24018.61615219  .00001192  00000-0  10768-3 0  9998,2 55928  70.0009 113.6723 0002673 260.5198  99.5659 14.98334464 46491,6950.179,96.107,573.902,570.186,0.0
55928.0,STARLINK-5930,PAYLOAD,2024-01-18 16:23:23,14.98335455,0.0002675,70.0009,113.5042,260.6221,99.4636,0.00011611,1.293e-05,0.0,0 STARLINK-5930,1 55928U 23037Q   24018.68291117  .00001293  00000-0  11611-3 0  9992,2 55928  70.0009 113.5042 0002675 260.6221  99.4636 14.98335455 46501,6950.176,96.107,573.9,570.182,0.0
55928.0,STARLINK-5930,PAYLOAD,2024-01-19 11:37:00,14.98329322,0.0002518,70.0016,111.4838,252.3134,107.775,3.4906e-05,3.24e-06,0.0,0 STARLINK-5930,1 55928U 23037Q   24019.48403535  .00000324  00000-0  34906-4 0  9997,2 55928  70.0016 111.4838 0002518 252.3134 107.7750 14.98329322 46962,6950.195,96.107,573.81,570.31,0.0
55928.0,STARLINK-5930,PAYLOAD,2024-01-19 14:49:16,14.98330184,0.000252,70.0016,111.1472,252.7358,107.3525,4.4617e-05,4.39e-06,0.0,0 STARLINK-5930,1 55928U 23037Q   24019.61755421  .00000439  00000-0  44617-4 0  9993,2 55928  70.0016 111.1472 0002520 252.7358 107.3525 14.98330184 46647,6950.192,96.107,573.809,570.306,0.0
55928.0,STARLINK-5930,PAYLOAD,2024-01-20 11:39:01,14.98331872,0.0002684,70.0014,108.9605,251.677,108.4097,-2.797e-05,-4.27e-06,0.0,0 STARLINK-5930,1 55928U 23037Q   24020.48543325 -.00000427  00000-0 -27970-4 0  9990,2 55928  70.0014 108.9605 0002684 251.6770 108.4097 14.98331872 47118,6950.187,96.107,573.918,570.187,0.0
55928.0,STARLINK-5930,PAYLOAD,2024-01-20 14:51:17,14.98330973,0.0002771,70.0008,108.6227,262.8647,97.2197,-3.3526e-05,-4.93e-06,0.0,0 STARLINK-5930,1 55928U 23037Q   24020.61895409 -.00000493  00000-0 -33526-4 0  9995,2 55928  70.0008 108.6227 0002771 262.8647  97.2197 14.98330973 46792,6950.19,96.107,573.981,570.129,0.0
